GREENCUBE               
1 53106U 22080B   24267.95696015 -.00000003  00000+0  00000+0 0  9991
2 53106  70.1418 158.2149 0008148  84.7125 275.4465  6.42557419 51615
CAS-5A (FO-118)         
1 54684U 22167C   24269.50915411  .00080373  00000+0  19844-2 0  9992
2 54684  97.6150  57.4078 0008288 161.2869 198.8683 15.40178277 99684
STRATOSAT-TK 1 (RS52S)  
1 57167U 23091B   24269.51087230  .00037836  00000+0  18771-2 0  9992
2 57167  97.5996 322.5669 0015323 133.1302 227.1215 15.17504727 68747
UMKA 1 (RS40S)          
1 57172U 23091G   24269.49944580  .00014047  00000+0  87549-3 0  9994
2 57172  97.6007 320.5951 0017390 136.5479 223.7123 15.09535905 68616
CUBESX-HSE 3 (RS42S)    
1 57178U 23091N   24269.54012116  .00018684  00000+0  10938-2 0  9995
2 57178  97.6046 321.3705 0017929 130.2111 230.0692 15.11740566 68653
MONITOR-4 (RS57S)       
1 57182U 23091S   24269.49881759  .00018345  00000+0  10947-2 0  9995
2 57182  97.6031 321.0483 0018095 131.9539 228.3236 15.11048858 68636
MONITOR-2 (RS39S)       
1 57184U 23091U   24269.46386621  .00010518  00000+0  66028-3 0  9998
2 57184  97.6041 320.9744 0015301 125.6845 234.5810 15.09376060 68626
SVYATOBOR 1 (RS60S)     
1 57187U 23091X   24269.49789008  .00016479  00000+0  97049-3 0  9999
2 57187  97.6040 321.7036 0014414 122.9687 237.2931 15.11600744 68670
VIZARD-METEO (RS38S)    
1 57189U 23091Z   24269.47678474  .00020124  00000+0  11200-2 0  9999
2 57189  97.6033 322.3009 0013475 120.1216 240.1352 15.13601510 68714
NANOZOND 1 (RS49S)      
1 57190U 23091AA  24269.47002890  .00031337  00000+0  15548-2 0  9991
2 57190  97.6002 323.2312 0011541 124.1548 236.0782 15.17591687 68788
POLYTECH-UNIVERSE 3 (R*)
1 57191U 23091AB  24269.47096639  .00011701  00000+0  73263-3 0  9998
2 57191  97.6009 320.6169 0020264 142.0635 218.2026 15.09367898 68616
UTMN 2 (RS27S)          
1 57203U 23091AP  24269.50658821  .00019172  00000+0  10891-2 0  9990
2 57203  97.6028 322.1045 0013652 120.7923 239.4654 15.12876508 68706
ARCCUBE 1 (RS25S)       
1 57205U 23091AR  24269.48277321  .00039596  00000+0  18515-2 0  9994
2 57205  97.5966 323.5343 0011409 124.8593 235.3716 15.19599908 68819
KUZGTU 1 (RS47S)        
1 57217U 23091AV  24269.49433966  .00018937  00000+0  11159-2 0  9990
2 57217  97.6020 321.1305 0017649 131.9087 228.3651 15.11503470 68647
HADES-D (SO-121)        
1 58567U 23174CY  24269.18205502  .00240778  00000+0  38676-2 0  9993
2 58567  97.4388 346.3991 0011559 230.3677 129.6556 15.52100604 49153
OOV-CUBE (TUBSAT-30)    
1 60240U 24128F   24269.22830995  .00007138  00000+0  62892-3 0  9998
2 60240  61.9967 254.3238 0016573 334.4484  25.5784 14.97174742 11583
